ONEWEB-0641             
1 55805U 23029K   26117.07828933  .00000032  00000+0  47705-4 0  9997
2 55805  87.9151 315.1567 0001820  82.5558 277.5782 13.19724454152172
ONEWEB-0642             
1 55806U 23029L   26117.07354030  .00000061  00000+0  11995-3 0  9993
2 55806  87.9151 315.1716 0002005  62.7602 297.3735 13.19723984152169
ONEWEB-0643             
1 55807U 23029M   26117.22130731 -.00000168  00000+0 -48652-3 0  9991
2 55807  87.8916 299.9058 0001639  68.6853 291.4452 13.14502636152694
ONEWEB-0644             
1 55808U 23029N   26117.29626112  .00000050  00000+0  92932-4 0  9991
2 55808  87.9145 315.1298 0001797  76.0702 284.0631 13.19724442152196
ONEWEB-0645             
1 55809U 23029P   26117.24256625  .00000056  00000+0  10845-3 0  9993
2 55809  87.9150 315.1368 0002196  80.7296 279.4085 13.19725105152182
ONEWEB-0646             
1 55810U 23029Q   26117.25993033  .00000140  00000+0  31710-3 0  9995
2 55810  87.9151 315.1331 0001786  78.6344 281.4990 13.19723737152175
ONEWEB-0648             
1 55811U 23029R   26117.26571869  .00000211  00000+0  53495-3 0  9999
2 55811  87.8926 299.8658 0002396  72.1101 288.0290 13.14502038152702
ONEWEB-0649             
1 55812U 23029S   26117.28521003  .00000041  00000+0  70287-4 0  9997
2 55812  87.9152 315.1257 0002009  82.1426 277.9935 13.19724672152218
ONEWEB-0650             
1 55813U 23029T   26117.05301905  .00000110  00000+0  24121-3 0  9992
2 55813  87.9153 315.1747 0001894  74.1961 285.9381 13.19724389152152
ONEWEB-0652             
1 55814U 23029U   26117.24668234  .00000008  00000+0 -13794-4 0  9997
2 55814  87.8916 299.8802 0001693  96.4413 263.6909 13.14502563152674
ONEWEB-0653             
1 55815U 23029V   26117.23082323 -.00000191  00000+0 -55042-3 0  9991
2 55815  87.8924 299.8787 0001870  95.8249 264.3094 13.14501887152708
ONEWEB-0654             
1 55816U 23029W   26117.22606550 -.00000229  00000+0 -65133-3 0  9999
2 55816  87.8923 299.8760 0001729 103.3816 256.7507 13.14502393152726
ONEWEB-0656             
1 55817U 23029X   26116.99248296 -.00000018  00000+0 -76914-4 0  9998
2 55817  87.9141 284.6445 0001787 108.9225 251.2102 13.20772334154398
ONEWEB-0657             
1 55818U 23029Y   26117.27573388  .00000027  00000+0  34541-4 0  9992
2 55818  87.9151 315.1290 0001154  99.1206 261.0057 13.19724016152192
ONEWEB-0658             
1 55819U 23029Z   26117.27099472  .00000025  00000+0  29000-4 0  9992
2 55819  87.9162 315.1011 0001842  74.6858 285.4478 13.19724182152204
ONEWEB-0660             
1 55820U 23029AA  26117.20385813  .00000095  00000+0  22079-3 0  9999
2 55820  87.8927 299.8712 0002050  87.4558 272.6807 13.14503583152705
