[{"OBJECT_NAME":"ONEWEB-0641","OBJECT_ID":"2023-029K","EPOCH":"2026-04-27T01:52:44.198112","MEAN_MOTION":13.19724454,"ECCENTRICITY":0.000182,"INCLINATION":87.9151,"RA_OF_ASC_NODE":315.1567,"ARG_OF_PERICENTER":82.5558,"MEAN_ANOMALY":277.5782,"EPHEMERIS_TYPE":0,"CLASSIFICATION_TYPE":"U","NORAD_CAT_ID":55805,"ELEMENT_SET_NO":999,"REV_AT_EPOCH":15217,"BSTAR":4.7705e-05,"MEAN_MOTION_DOT":3.2e-07,"MEAN_MOTION_DDOT":0.0},{"OBJECT_NAME":"ONEWEB-0642","OBJECT_ID":"2023-029L","EPOCH":"2026-04-27T01:45:53.881920","MEAN_MOTION":13.19723984,"ECCENTRICITY":0.0002005,"INCLINATION":87.9151,"RA_OF_ASC_NODE":315.1716,"ARG_OF_PERICENTER":62.7602,"MEAN_ANOMALY":297.3735,"EPHEMERIS_TYPE":0,"CLASSIFICATION_TYPE":"U","NORAD_CAT_ID":55806,"ELEMENT_SET_NO":999,"REV_AT_EPOCH":15216,"BSTAR":0.00011995,"MEAN_MOTION_DOT":6.1e-07,"MEAN_MOTION_DDOT":0.0},{"OBJECT_NAME":"ONEWEB-0643","OBJECT_ID":"2023-029M","EPOCH":"2026-04-27T05:18:40.951584","MEAN_MOTION":13.14502636,"ECCENTRICITY":0.0001639,"INCLINATION":87.8916,"RA_OF_ASC_NODE":299.9058,"ARG_OF_PERICENTER":68.6853,"MEAN_ANOMALY":291.4452,"EPHEMERIS_TYPE":0,"CLASSIFICATION_TYPE":"U","NORAD_CAT_ID":55807,"ELEMENT_SET_NO":999,"REV_AT_EPOCH":15269,"BSTAR":-0.00048652,"MEAN_MOTION_DOT":-1.68e-06,"MEAN_MOTION_DDOT":0.0},{"OBJECT_NAME":"ONEWEB-0644","OBJECT_ID":"2023-029N","EPOCH":"2026-04-27T07:06:36.960768","MEAN_MOTION":13.19724442,"ECCENTRICITY":0.0001797,"INCLINATION":87.9145,"RA_OF_ASC_NODE":315.1298,"ARG_OF_PERICENTER":76.0702,"MEAN_ANOMALY":284.0631,"EPHEMERIS_TYPE":0,"CLASSIFICATION_TYPE":"U","NORAD_CAT_ID":55808,"ELEMENT_SET_NO":999,"REV_AT_EPOCH":15219,"BSTAR":9.293200000000001e-05,"MEAN_MOTION_DOT":5e-07,"MEAN_MOTION_DDOT":0.0},{"OBJECT_NAME":"ONEWEB-0645","OBJECT_ID":"2023-029P","EPOCH":"2026-04-27T05:49:17.724000","MEAN_MOTION":13.19725105,"ECCENTRICITY":0.0002196,"INCLINATION":87.915,"RA_OF_ASC_NODE":315.1368,"ARG_OF_PERICENTER":80.7296,"MEAN_ANOMALY":279.4085,"EPHEMERIS_TYPE":0,"CLASSIFICATION_TYPE":"U","NORAD_CAT_ID":55809,"ELEMENT_SET_NO":999,"REV_AT_EPOCH":15218,"BSTAR":0.00010845000000000001,"MEAN_MOTION_DOT":5.6e-07,"MEAN_MOTION_DDOT":0.0},{"OBJECT_NAME":"ONEWEB-0646","OBJECT_ID":"2023-029Q","EPOCH":"2026-04-27T06:14:17.980512","MEAN_MOTION":13.19723737,"ECCENTRICITY":0.0001786,"INCLINATION":87.9151,"RA_OF_ASC_NODE":315.1331,"ARG_OF_PERICENTER":78.6344,"MEAN_ANOMALY":281.499,"EPHEMERIS_TYPE":0,"CLASSIFICATION_TYPE":"U","NORAD_CAT_ID":55810,"ELEMENT_SET_NO":999,"REV_AT_EPOCH":15217,"BSTAR":0.0003171,"MEAN_MOTION_DOT":1.4e-06,"MEAN_MOTION_DDOT":0.0},{"OBJECT_NAME":"ONEWEB-0648","OBJECT_ID":"2023-029R","EPOCH":"2026-04-27T06:22:38.094816","MEAN_MOTION":13.14502038,"ECCENTRICITY":0.0002396,"INCLINATION":87.8926,"RA_OF_ASC_NODE":299.8658,"ARG_OF_PERICENTER":72.1101,"MEAN_ANOMALY":288.029,"EPHEMERIS_TYPE":0,"CLASSIFICATION_TYPE":"U","NORAD_CAT_ID":55811,"ELEMENT_SET_NO":999,"REV_AT_EPOCH":15270,"BSTAR":0.0005349500000000001,"MEAN_MOTION_DOT":2.11e-06,"MEAN_MOTION_DDOT":0.0},{"OBJECT_NAME":"ONEWEB-0649","OBJECT_ID":"2023-029S","EPOCH":"2026-04-27T06:50:42.146592","MEAN_MOTION":13.19724672,"ECCENTRICITY":0.0002009,"INCLINATION":87.9152,"RA_OF_ASC_NODE":315.1257,"ARG_OF_PERICENTER":82.1426,"MEAN_ANOMALY":277.9935,"EPHEMERIS_TYPE":0,"CLASSIFICATION_TYPE":"U","NORAD_CAT_ID":55812,"ELEMENT_SET_NO":999,"REV_AT_EPOCH":15221,"BSTAR":7.0287e-05,"MEAN_MOTION_DOT":4.1e-07,"MEAN_MOTION_DDOT":0.0},{"OBJECT_NAME":"ONEWEB-0650","OBJECT_ID":"2023-029T","EPOCH":"2026-04-27T01:16:20.845920","MEAN_MOTION":13.19724389,"ECCENTRICITY":0.0001894,"INCLINATION":87.9153,"RA_OF_ASC_NODE":315.1747,"ARG_OF_PERICENTER":74.1961,"MEAN_ANOMALY":285.9381,"EPHEMERIS_TYPE":0,"CLASSIFICATION_TYPE":"U","NORAD_CAT_ID":55813,"ELEMENT_SET_NO":999,"REV_AT_EPOCH":15215,"BSTAR":0.00024121,"MEAN_MOTION_DOT":1.1e-06,"MEAN_MOTION_DDOT":0.0},{"OBJECT_NAME":"ONEWEB-0652","OBJECT_ID":"2023-029U","EPOCH":"2026-04-27T05:55:13.354176","MEAN_MOTION":13.14502563,"ECCENTRICITY":0.0001693,"INCLINATION":87.8916,"RA_OF_ASC_NODE":299.8802,"ARG_OF_PERICENTER":96.4413,"MEAN_ANOMALY":263.6909,"EPHEMERIS_TYPE":0,"CLASSIFICATION_TYPE":"U","NORAD_CAT_ID":55814,"ELEMENT_SET_NO":999,"REV_AT_EPOCH":15267,"BSTAR":-1.3794000000000002e-05,"MEAN_MOTION_DOT":8e-08,"MEAN_MOTION_DDOT":0.0},{"OBJECT_NAME":"ONEWEB-0653","OBJECT_ID":"2023-029V","EPOCH":"2026-04-27T05:32:23.127072","MEAN_MOTION":13.14501887,"ECCENTRICITY":0.000187,"INCLINATION":87.8924,"RA_OF_ASC_NODE":299.8787,"ARG_OF_PERICENTER":95.8249,"MEAN_ANOMALY":264.3094,"EPHEMERIS_TYPE":0,"CLASSIFICATION_TYPE":"U","NORAD_CAT_ID":55815,"ELEMENT_SET_NO":999,"REV_AT_EPOCH":15270,"BSTAR":-0.00055042,"MEAN_MOTION_DOT":-1.91e-06,"MEAN_MOTION_DDOT":0.0},{"OBJECT_NAME":"ONEWEB-0654","OBJECT_ID":"2023-029W","EPOCH":"2026-04-27T05:25:32.059200","MEAN_MOTION":13.14502393,"ECCENTRICITY":0.0001729,"INCLINATION":87.8923,"RA_OF_ASC_NODE":299.876,"ARG_OF_PERICENTER":103.3816,"MEAN_ANOMALY":256.7507,"EPHEMERIS_TYPE":0,"CLASSIFICATION_TYPE":"U","NORAD_CAT_ID":55816,"ELEMENT_SET_NO":999,"REV_AT_EPOCH":15272,"BSTAR":-0.00065133,"MEAN_MOTION_DOT":-2.29e-06,"MEAN_MOTION_DDOT":0.0},{"OBJECT_NAME":"ONEWEB-0656","OBJECT_ID":"2023-029X","EPOCH":"2026-04-26T23:49:10.527744","MEAN_MOTION":13.20772334,"ECCENTRICITY":0.0001787,"INCLINATION":87.9141,"RA_OF_ASC_NODE":284.6445,"ARG_OF_PERICENTER":108.9225,"MEAN_ANOMALY":251.2102,"EPHEMERIS_TYPE":0,"CLASSIFICATION_TYPE":"U","NORAD_CAT_ID":55817,"ELEMENT_SET_NO":999,"REV_AT_EPOCH":15439,"BSTAR":-7.6914e-05,"MEAN_MOTION_DOT":-1.8e-07,"MEAN_MOTION_DDOT":0.0},{"OBJECT_NAME":"ONEWEB-0657","OBJECT_ID":"2023-029Y","EPOCH":"2026-04-27T06:37:03.407232","MEAN_MOTION":13.19724016,"ECCENTRICITY":0.0001154,"INCLINATION":87.9151,"RA_OF_ASC_NODE":315.129,"ARG_OF_PERICENTER":99.1206,"MEAN_ANOMALY":261.0057,"EPHEMERIS_TYPE":0,"CLASSIFICATION_TYPE":"U","NORAD_CAT_ID":55818,"ELEMENT_SET_NO":999,"REV_AT_EPOCH":15219,"BSTAR":3.4541e-05,"MEAN_MOTION_DOT":2.7e-07,"MEAN_MOTION_DDOT":0.0},{"OBJECT_NAME":"ONEWEB-0658","OBJECT_ID":"2023-029Z","EPOCH":"2026-04-27T06:30:13.943808","MEAN_MOTION":13.19724182,"ECCENTRICITY":0.0001842,"INCLINATION":87.9162,"RA_OF_ASC_NODE":315.1011,"ARG_OF_PERICENTER":74.6858,"MEAN_ANOMALY":285.4478,"EPHEMERIS_TYPE":0,"CLASSIFICATION_TYPE":"U","NORAD_CAT_ID":55819,"ELEMENT_SET_NO":999,"REV_AT_EPOCH":15220,"BSTAR":2.9e-05,"MEAN_MOTION_DOT":2.5e-07,"MEAN_MOTION_DDOT":0.0},{"OBJECT_NAME":"ONEWEB-0660","OBJECT_ID":"2023-029AA","EPOCH":"2026-04-27T04:53:33.342432","MEAN_MOTION":13.14503583,"ECCENTRICITY":0.000205,"INCLINATION":87.8927,"RA_OF_ASC_NODE":299.8712,"ARG_OF_PERICENTER":87.4558,"MEAN_ANOMALY":272.6807,"EPHEMERIS_TYPE":0,"CLASSIFICATION_TYPE":"U","NORAD_CAT_ID":55820,"ELEMENT_SET_NO":999,"REV_AT_EPOCH":15270,"BSTAR":0.00022078999999999998,"MEAN_MOTION_DOT":9.5e-07,"MEAN_MOTION_DDOT":0.0}]